{
  "type": "FeatureCollection",
  "features": [
    {
      "type": "Feature",
      "properties": {
        "norad_id": 30882,
        "name": "FENGYUN 1C DEB",
        "group": "fengyun-1c-debris",
        "lat": -30.861881551049464,
        "lon": -150.63418833868516,
        "alt_km": 702.2596968367616,
        "timestamp": "2025-12-04T19:33:59.882143+00:00",
        "meta_object_name": "FENGYUN 1C DEB",
        "meta_object_id": "1999-025AXU",
        "meta_epoch": "2025-12-03T21:37:45.680160",
        "meta_mean_motion": 14.86420394,
        "meta_eccentricity": 0.01545465,
        "meta_inclination": 97.9448,
        "meta_ra_of_asc_node": 33.2392,
        "meta_arg_of_pericenter": 69.6846,
        "meta_mean_anomaly": 292.0901,
        "meta_ephemeris_type": 0,
        "meta_classification_type": "U",
        "meta_norad_cat_id": 30882,
        "meta_element_set_no": 999,
        "meta_rev_at_epoch": 99523,
        "meta_bstar": 0.0018680058,
        "meta_mean_motion_dot": 0.00020499,
        "meta_mean_motion_ddot": 0,
        "tle_line1": "1 30882U 99025AXU 25337.90122315  .00020499  00000+0  18680-2 0  9997",
        "tle_line2": "2 30882  97.9448  33.2392 0154546  69.6846 292.0901 14.86420394995232"
      },
      "geometry": {
        "type": "Point",
        "coordinates": [
          -150.63418833868516,
          -30.861881551049464
        ]
      }
    },
    {
      "type": "Feature",
      "properties": {
        "norad_id": 30883,
        "name": "FENGYUN 1C DEB",
        "group": "fengyun-1c-debris",
        "lat": 58.75644778304104,
        "lon": -149.56476975264545,
        "alt_km": 873.7390472478546,
        "timestamp": "2025-12-04T19:33:59.882152+00:00",
        "meta_object_name": "FENGYUN 1C DEB",
        "meta_object_id": "1999-025AXV",
        "meta_epoch": "2025-12-02T21:45:33.352992",
        "meta_mean_motion": 14.14536044,
        "meta_eccentricity": 0.01114302,
        "meta_inclination": 98.3632,
        "meta_ra_of_asc_node": 14.6139,
        "meta_arg_of_pericenter": 242.4481,
        "meta_mean_anomaly": 244.9252,
        "meta_ephemeris_type": 0,
        "meta_classification_type": "U",
        "meta_norad_cat_id": 30883,
        "meta_element_set_no": 999,
        "meta_rev_at_epoch": 96778,
        "meta_bstar": 0.00025715885,
        "meta_mean_motion_dot": 4.83e-06,
        "meta_mean_motion_ddot": 0,
        "tle_line1": "1 30883U 99025AXV 25336.90663603  .00000483  00000+0  25716-3 0  9997",
        "tle_line2": "2 30883  98.3632  14.6139 0111430 242.4481 244.9252 14.14536044967781"
      },
      "geometry": {
        "type": "Point",
        "coordinates": [
          -149.56476975264545,
          58.75644778304104
        ]
      }
    },
    {
      "type": "Feature",
      "properties": {
        "norad_id": 30884,
        "name": "FENGYUN 1C DEB",
        "group": "fengyun-1c-debris",
        "lat": -20.800945212494224,
        "lon": 148.49040691495304,
        "alt_km": 701.1621031787554,
        "timestamp": "2025-12-04T19:33:59.882160+00:00",
        "meta_object_name": "FENGYUN 1C DEB",
        "meta_object_id": "1999-025AXW",
        "meta_epoch": "2025-12-04T05:36:53.625600",
        "meta_mean_motion": 14.73101348,
        "meta_eccentricity": 0.00681614,
        "meta_inclination": 98.8891,
        "meta_ra_of_asc_node": 331.2629,
        "meta_arg_of_pericenter": 2.3375,
        "meta_mean_anomaly": 357.8136,
        "meta_ephemeris_type": 0,
        "meta_classification_type": "U",
        "meta_norad_cat_id": 30884,
        "meta_element_set_no": 999,
        "meta_rev_at_epoch": 98536,
        "meta_bstar": 0.0047715143,
        "meta_mean_motion_dot": 0.00031948,
        "meta_mean_motion_ddot": 0,
        "tle_line1": "1 30884U 99025AXW 25338.23395400  .00031948  00000+0  47715-2 0  9995",
        "tle_line2": "2 30884  98.8891 331.2629 0068161   2.3375 357.8136 14.73101348985362"
      },
      "geometry": {
        "type": "Point",
        "coordinates": [
          148.49040691495304,
          -20.800945212494224
        ]
      }
    },
    {
      "type": "Feature",
      "properties": {
        "norad_id": 30885,
        "name": "FENGYUN 1C DEB",
        "group": "fengyun-1c-debris",
        "lat": -27.289464283791425,
        "lon": -5.91490359466822,
        "alt_km": 702.544985118032,
        "timestamp": "2025-12-04T19:33:59.882169+00:00",
        "meta_object_name": "FENGYUN 1C DEB",
        "meta_object_id": "1999-025AXX",
        "meta_epoch": "2025-12-03T19:29:29.285664",
        "meta_mean_motion": 14.49127363,
        "meta_eccentricity": 0.00545775,
        "meta_inclination": 99.0263,
        "meta_ra_of_asc_node": 177.7167,
        "meta_arg_of_pericenter": 246.2419,
        "meta_mean_anomaly": 131.4149,
        "meta_ephemeris_type": 0,
        "meta_classification_type": "U",
        "meta_norad_cat_id": 30885,
        "meta_element_set_no": 999,
        "meta_rev_at_epoch": 96848,
        "meta_bstar": 0.0043524888,
        "meta_mean_motion_dot": 0.00016853,
        "meta_mean_motion_ddot": 0,
        "tle_line1": "1 30885U 99025AXX 25337.81214451  .00016853  00000+0  43525-2 0  9998",
        "tle_line2": "2 30885  99.0263 177.7167 0054577 246.2419 131.4149 14.49127363968485"
      },
      "geometry": {
        "type": "Point",
        "coordinates": [
          -5.91490359466822,
          -27.289464283791425
        ]
      }
    },
    {
      "type": "Feature",
      "properties": {
        "norad_id": 30886,
        "name": "FENGYUN 1C DEB",
        "group": "fengyun-1c-debris",
        "lat": 41.829140928660856,
        "lon": 59.78274463017591,
        "alt_km": 808.9857901919322,
        "timestamp": "2025-12-04T19:33:59.882179+00:00",
        "meta_object_name": "FENGYUN 1C DEB",
        "meta_object_id": "1999-025AXY",
        "meta_epoch": "2025-12-03T04:06:16.414848",
        "meta_mean_motion": 14.22660188,
        "meta_eccentricity": 0.00358263,
        "meta_inclination": 99.2093,
        "meta_ra_of_asc_node": 229.7161,
        "meta_arg_of_pericenter": 60.55,
        "meta_mean_anomaly": 299.9243,
        "meta_ephemeris_type": 0,
        "meta_classification_type": "U",
        "meta_norad_cat_id": 30886,
        "meta_element_set_no": 999,
        "meta_rev_at_epoch": 96260,
        "meta_bstar": 0.0024083994,
        "meta_mean_motion_dot": 5.38e-05,
        "meta_mean_motion_ddot": 0,
        "tle_line1": "1 30886U 99025AXY 25337.17102332  .00005380  00000+0  24084-2 0  9994",
        "tle_line2": "2 30886  99.2093 229.7161 0035826  60.5500 299.9243 14.22660188962606"
      },
      "geometry": {
        "type": "Point",
        "coordinates": [
          59.78274463017591,
          41.829140928660856
        ]
      }
    },
    {
      "type": "Feature",
      "properties": {
        "norad_id": 30887,
        "name": "FENGYUN 1C DEB",
        "group": "fengyun-1c-debris",
        "lat": -14.668434818033264,
        "lon": -147.41849900898455,
        "alt_km": 829.7416745986911,
        "timestamp": "2025-12-04T19:33:59.882188+00:00",
        "meta_object_name": "FENGYUN 1C DEB",
        "meta_object_id": "1999-025AXZ",
        "meta_epoch": "2025-12-03T02:45:13.514400",
        "meta_mean_motion": 14.44716488,
        "meta_eccentricity": 0.02641301,
        "meta_inclination": 98.3708,
        "meta_ra_of_asc_node": 33.1132,
        "meta_arg_of_pericenter": 317.1227,
        "meta_mean_anomaly": 40.9634,
        "meta_ephemeris_type": 0,
        "meta_classification_type": "U",
        "meta_norad_cat_id": 30887,
        "meta_element_set_no": 999,
        "meta_rev_at_epoch": 97989,
        "meta_bstar": 0.00075352778,
        "meta_mean_motion_dot": 3.959e-05,
        "meta_mean_motion_ddot": 0,
        "tle_line1": "1 30887U 99025AXZ 25337.11473975  .00003959  00000+0  75353-3 0  9999",
        "tle_line2": "2 30887  98.3708  33.1132 0264130 317.1227  40.9634 14.44716488979890"
      },
      "geometry": {
        "type": "Point",
        "coordinates": [
          -147.41849900898455,
          -14.668434818033264
        ]
      }
    },
    {
      "type": "Feature",
      "properties": {
        "norad_id": 30888,
        "name": "FENGYUN 1C DEB",
        "group": "fengyun-1c-debris",
        "lat": 57.18179863189761,
        "lon": -59.023205256545886,
        "alt_km": 607.8025928024526,
        "timestamp": "2025-12-04T19:33:59.882197+00:00",
        "meta_object_name": "FENGYUN 1C DEB",
        "meta_object_id": "1999-025AYA",
        "meta_epoch": "2025-12-03T09:32:14.029440",
        "meta_mean_motion": 14.93532582,
        "meta_eccentricity": 0.00829447,
        "meta_inclination": 99.4816,
        "meta_ra_of_asc_node": 314.2886,
        "meta_arg_of_pericenter": 180.7417,
        "meta_mean_anomaly": 179.3688,
        "meta_ephemeris_type": 0,
        "meta_classification_type": "U",
        "meta_norad_cat_id": 30888,
        "meta_element_set_no": 999,
        "meta_rev_at_epoch": 99786,
        "meta_bstar": 0.0013325436,
        "meta_mean_motion_dot": 0.00014962,
        "meta_mean_motion_ddot": 0,
        "tle_line1": "1 30888U 99025AYA 25337.39738460  .00014962  00000+0  13325-2 0  9999",
        "tle_line2": "2 30888  99.4816 314.2886 0082944 180.7417 179.3688 14.93532582997866"
      },
      "geometry": {
        "type": "Point",
        "coordinates": [
          -59.023205256545886,
          57.18179863189761
        ]
      }
    }
  ]
}